[{"OBJECT_NAME":"STARLINK-3560","OBJECT_ID":"2022-022H","EPOCH":"2026-03-09T01:25:57.071712","MEAN_MOTION":15.08833754,"ECCENTRICITY":0.00013855,"INCLINATION":53.2181,"RA_OF_ASC_NODE":11.955,"ARG_OF_PERICENTER":97.902,"MEAN_ANOMALY":262.213,"EPHEMERIS_TYPE":0,"CLASSIFICATION_TYPE":"U","NORAD_CAT_ID":51859,"ELEMENT_SET_NO":999,"REV_AT_EPOCH":22306,"BSTAR":-5.9470896e-5,"MEAN_MOTION_DOT":-1.234e-5,"MEAN_MOTION_DDOT":0},{"OBJECT_NAME":"ELECTRON KICK STAGE R\/B","OBJECT_ID":"2023-196B","EPOCH":"2026-03-09T10:54:03.246336","MEAN_MOTION":15.12760744,"ECCENTRICITY":0.00189263,"INCLINATION":42.0179,"RA_OF_ASC_NODE":242.1679,"ARG_OF_PERICENTER":295.0915,"MEAN_ANOMALY":64.7951,"EPHEMERIS_TYPE":0,"CLASSIFICATION_TYPE":"U","NORAD_CAT_ID":58579,"ELEMENT_SET_NO":999,"REV_AT_EPOCH":12282,"BSTAR":0.00048326039,"MEAN_MOTION_DOT":8.466e-5,"MEAN_MOTION_DDOT":0}]
